{
    "links": {
        "self": "http://www.neowsapp.com/rest/v1/neo/3835956?api_key=iIulBulltgU6a56xZRHN4H3l9WmuAYTsLGpBGhQ2"
    },
    "id": "3835956",
    "neo_reference_id": "3835956",
    "name": "(2018 VW)",
    "designation": "2018 VW",
    "nasa_jpl_url": "http://ssd.jpl.nasa.gov/sbdb.cgi?sstr=3835956",
    "absolute_magnitude_h": 23.7,
    "estimated_diameter": {
        "kilometers": {
            "estimated_diameter_min": 0.0483676488,
            "estimated_diameter_max": 0.1081533507
        },
        "meters": {
            "estimated_diameter_min": 48.3676488219,
            "estimated_diameter_max": 108.1533506775
        },
        "miles": {
            "estimated_diameter_min": 0.0300542543,
            "estimated_diameter_max": 0.0672033557
        },
        "feet": {
            "estimated_diameter_min": 158.6865169607,
            "estimated_diameter_max": 354.8338390368
        }
    },
    "is_potentially_hazardous_asteroid": false,
    "close_approach_data": [
        {
            "close_approach_date": "2018-11-06",
            "close_approach_date_full": "2018-Nov-06 14:17",
            "epoch_date_close_approach": 1541513820000,
            "relative_velocity": {
                "kilometers_per_second": "12.9950135686",
                "kilometers_per_hour": "46782.0488468495",
                "miles_per_hour": "29068.5458515327"
            },
            "miss_distance": {
                "astronomical": "0.0394414529",
                "lunar": "15.3427251781",
                "kilometers": "5900357.343545323",
                "miles": "3666312.0441305374"
            },
            "orbiting_body": "Earth"
        },
        {
            "close_approach_date": "2019-01-11",
            "close_approach_date_full": "2019-Jan-11 21:25",
            "epoch_date_close_approach": 1547241900000,
            "relative_velocity": {
                "kilometers_per_second": "13.0285478995",
                "kilometers_per_hour": "46902.7724383696",
                "miles_per_hour": "29143.5587964969"
            },
            "miss_distance": {
                "astronomical": "0.1375884979",
                "lunar": "53.5219256831",
                "kilometers": "20582946.222339473",
                "miles": "12789649.7186238074"
            },
            "orbiting_body": "Venus"
        }
    ],
    "orbital_data": {
        "orbit_id": "2",
        "orbit_determination_date": "2018-11-07 06:35:33",
        "first_observation_date": "2018-11-01",
        "last_observation_date": "2018-11-05",
        "data_arc_in_days": 4,
        "observations_used": 23,
        "orbit_uncertainty": "8",
        "minimum_orbit_intersection": ".0145173",
        "jupiter_tisserand_invariant": "4.523",
        "epoch_osculation": "2458425.5",
        "eccentricity": ".4881465509702174",
        "semi_major_axis": "1.443029375380452",
        "inclination": "3.654244707044146",
        "ascending_node_longitude": "186.1950140826403",
        "orbital_period": "633.156667901949",
        "perihelion_distance": ".7386195628397774",
        "perihelion_argument": "294.6806209951903",
        "aphelion_distance": "2.147439187921127",
        "perihelion_time": "2458479.852662645497",
        "mean_anomaly": "329.0961818072347",
        "mean_motion": ".5685796553211847",
        "equinox": "J2000",
        "orbit_class": {
            "orbit_class_type": "APO",
            "orbit_class_description": "Near-Earth asteroid orbits which cross the Earth’s orbit similar to that of 1862 Apollo",
            "orbit_class_range": "a (semi-major axis) > 1.0 AU; q (perihelion) < 1.017 AU"
        }
    },
    "is_sentry_object": false
}